[
  {
    "COMMENT": "GENERATED VIA SPACETRACK.ORG API",
    "ORIGINATOR": "18 SPCS",
    "NORAD_CAT_ID": "25260",
    "OBJECT_NAME": "SPOT 4",
    "OBJECT_TYPE": "PAYLOAD",
    "CLASSIFICATION_TYPE": "U",
    "INTLDES": "98017A",
    "EPOCH": "2023-08-18 02:45:52",
    "EPOCH_MICROSECONDS": "438464",
    "MEAN_MOTION": "14.54270648",
    "ECCENTRICITY": "0.0013154",
    "INCLINATION": "98.2644",
    "RA_OF_ASC_NODE": "322.3271",
    "ARG_OF_PERICENTER": "172.5193",
    "MEAN_ANOMALY": "187.6202",
    "EPHEMERIS_TYPE": "0",
    "ELEMENT_SET_NO": "999",
    "REV_AT_EPOCH": "32915",
    "BSTAR": "0.00013605",
    "MEAN_MOTION_DOT": "0.00000532",
    "MEAN_MOTION_DDOT": "0",
    "FILE": "3983323",
    "TLE_LINE0": "0 SPOT 4",
    "TLE_LINE1": "1 25260U 98017A   23230.11519026  .00000532  00000-0  13605-3 0  9993",
    "TLE_LINE2": "2 25260  98.2644 322.3271 0013154 172.5193 187.6202 14.54270648329159",
    "OBJECT_ID": "1998-017A",
    "OBJECT_NUMBER": "25260",
    "SEMIMAJOR_AXIS": "7089.871",
    "PERIOD": "99.019",
    "APOGEE": "721.062",
    "PERIGEE": "702.410",
    "DECAYED": "0"
  },
  {
    "COMMENT": "GENERATED VIA SPACETRACK.ORG API",
    "ORIGINATOR": "18 SPCS",
    "NORAD_CAT_ID": "25260",
    "OBJECT_NAME": "SPOT 4",
    "OBJECT_TYPE": "PAYLOAD",
    "CLASSIFICATION_TYPE": "U",
    "INTLDES": "98017A",
    "EPOCH": "2023-08-18 07:43:06",
    "EPOCH_MICROSECONDS": "344544",
    "MEAN_MOTION": "14.54270825",
    "ECCENTRICITY": "0.0013167",
    "INCLINATION": "98.2644",
    "RA_OF_ASC_NODE": "322.531",
    "ARG_OF_PERICENTER": "171.8735",
    "MEAN_ANOMALY": "188.2677",
    "EPHEMERIS_TYPE": "0",
    "ELEMENT_SET_NO": "999",
    "REV_AT_EPOCH": "32918",
    "BSTAR": "0.00013413",
    "MEAN_MOTION_DOT": "0.00000524",
    "MEAN_MOTION_DDOT": "0",
    "FILE": "3983586",
    "TLE_LINE0": "0 SPOT 4",
    "TLE_LINE1": "1 25260U 98017A   23230.32160121  .00000524  00000-0  13413-3 0  9992",
    "TLE_LINE2": "2 25260  98.2644 322.5310 0013167 171.8735 188.2677 14.54270825329186",
    "OBJECT_ID": "1998-017A",
    "OBJECT_NUMBER": "25260",
    "SEMIMAJOR_AXIS": "7089.871",
    "PERIOD": "99.019",
    "APOGEE": "721.071",
    "PERIGEE": "702.400",
    "DECAYED": "0"
  },
  {
    "COMMENT": "GENERATED VIA SPACETRACK.ORG API",
    "ORIGINATOR": "18 SPCS",
    "NORAD_CAT_ID": "25260",
    "OBJECT_NAME": "SPOT 4",
    "OBJECT_TYPE": "PAYLOAD",
    "CLASSIFICATION_TYPE": "U",
    "INTLDES": "98017A",
    "EPOCH": "2023-08-18 19:16:38",
    "EPOCH_MICROSECONDS": "750592",
    "MEAN_MOTION": "14.54271468",
    "ECCENTRICITY": "0.0013199",
    "INCLINATION": "98.2644",
    "RA_OF_ASC_NODE": "323.0066",
    "ARG_OF_PERICENTER": "170.4031",
    "MEAN_ANOMALY": "189.742",
    "EPHEMERIS_TYPE": "0",
    "ELEMENT_SET_NO": "999",
    "REV_AT_EPOCH": "32925",
    "BSTAR": "0.00013581",
    "MEAN_MOTION_DOT": "0.00000531",
    "MEAN_MOTION_DDOT": "0",
    "FILE": "3983888",
    "TLE_LINE0": "0 SPOT 4",
    "TLE_LINE1": "1 25260U 98017A   23230.80322628  .00000531  00000-0  13581-3 0  9991",
    "TLE_LINE2": "2 25260  98.2644 323.0066 0013199 170.4031 189.7420 14.54271468329253",
    "OBJECT_ID": "1998-017A",
    "OBJECT_NUMBER": "25260",
    "SEMIMAJOR_AXIS": "7089.869",
    "PERIOD": "99.019",
    "APOGEE": "721.092",
    "PERIGEE": "702.376",
    "DECAYED": "0"
  },
  {
    "COMMENT": "GENERATED VIA SPACETRACK.ORG API",
    "ORIGINATOR": "18 SPCS",
    "NORAD_CAT_ID": "25260",
    "OBJECT_NAME": "SPOT 4",
    "OBJECT_TYPE": "PAYLOAD",
    "CLASSIFICATION_TYPE": "U",
    "INTLDES": "98017A",
    "EPOCH": "2023-08-19 05:11:06",
    "EPOCH_MICROSECONDS": "533376",
    "MEAN_MOTION": "14.54271938",
    "ECCENTRICITY": "0.0013225",
    "INCLINATION": "98.2644",
    "RA_OF_ASC_NODE": "323.4143",
    "ARG_OF_PERICENTER": "169.1533",
    "MEAN_ANOMALY": "190.9951",
    "EPHEMERIS_TYPE": "0",
    "ELEMENT_SET_NO": "999",
    "REV_AT_EPOCH": "32931",
    "BSTAR": "0.0001373",
    "MEAN_MOTION_DOT": "0.00000537",
    "MEAN_MOTION_DDOT": "0",
    "FILE": "3984264",
    "TLE_LINE0": "0 SPOT 4",
    "TLE_LINE1": "1 25260U 98017A   23231.21604784  .00000537  00000-0  13730-3 0  9995",
    "TLE_LINE2": "2 25260  98.2644 323.4143 0013225 169.1533 190.9951 14.54271938329317",
    "OBJECT_ID": "1998-017A",
    "OBJECT_NUMBER": "25260",
    "SEMIMAJOR_AXIS": "7089.867",
    "PERIOD": "99.019",
    "APOGEE": "721.108",
    "PERIGEE": "702.356",
    "DECAYED": "0"
  },
  {
    "COMMENT": "GENERATED VIA SPACETRACK.ORG API",
    "ORIGINATOR": "18 SPCS",
    "NORAD_CAT_ID": "25260",
    "OBJECT_NAME": "SPOT 4",
    "OBJECT_TYPE": "PAYLOAD",
    "CLASSIFICATION_TYPE": "U",
    "INTLDES": "98017A",
    "EPOCH": "2023-08-19 06:50:11",
    "EPOCH_MICROSECONDS": "159232",
    "MEAN_MOTION": "14.5427204",
    "ECCENTRICITY": "0.001323",
    "INCLINATION": "98.2644",
    "RA_OF_ASC_NODE": "323.4823",
    "ARG_OF_PERICENTER": "168.9622",
    "MEAN_ANOMALY": "191.1867",
    "EPHEMERIS_TYPE": "0",
    "ELEMENT_SET_NO": "999",
    "REV_AT_EPOCH": "32932",
    "BSTAR": "0.00013785",
    "MEAN_MOTION_DOT": "0.0000054",
    "MEAN_MOTION_DDOT": "0",
    "FILE": "3984533",
    "TLE_LINE0": "0 SPOT 4",
    "TLE_LINE1": "1 25260U 98017A   23231.28485138  .00000540  00000-0  13785-3 0  9996",
    "TLE_LINE2": "2 25260  98.2644 323.4823 0013230 168.9622 191.1867 14.54272040329329",
    "OBJECT_ID": "1998-017A",
    "OBJECT_NUMBER": "25260",
    "SEMIMAJOR_AXIS": "7089.867",
    "PERIOD": "99.019",
    "APOGEE": "721.112",
    "PERIGEE": "702.352",
    "DECAYED": "0"
  },
  {
    "COMMENT": "GENERATED VIA SPACETRACK.ORG API",
    "ORIGINATOR": "18 SPCS",
    "NORAD_CAT_ID": "25260",
    "OBJECT_NAME": "SPOT 4",
    "OBJECT_TYPE": "PAYLOAD",
    "CLASSIFICATION_TYPE": "U",
    "INTLDES": "98017A",
    "EPOCH": "2023-08-20 04:18:11",
    "EPOCH_MICROSECONDS": "296224",
    "MEAN_MOTION": "14.54273136",
    "ECCENTRICITY": "0.001329",
    "INCLINATION": "98.2643",
    "RA_OF_ASC_NODE": "324.3656",
    "ARG_OF_PERICENTER": "166.2732",
    "MEAN_ANOMALY": "193.8829",
    "EPHEMERIS_TYPE": "0",
    "ELEMENT_SET_NO": "999",
    "REV_AT_EPOCH": "32945",
    "BSTAR": "0.00014163",
    "MEAN_MOTION_DOT": "0.00000556",
    "MEAN_MOTION_DDOT": "0",
    "FILE": "3985085",
    "TLE_LINE0": "0 SPOT 4",
    "TLE_LINE1": "1 25260U 98017A   23232.17929741  .00000556  00000-0  14163-3 0  9996",
    "TLE_LINE2": "2 25260  98.2643 324.3656 0013290 166.2732 193.8829 14.54273136329459",
    "OBJECT_ID": "1998-017A",
    "OBJECT_NUMBER": "25260",
    "SEMIMAJOR_AXIS": "7089.863",
    "PERIOD": "99.019",
    "APOGEE": "721.151",
    "PERIGEE": "702.306",
    "DECAYED": "0"
  },
  {
    "COMMENT": "GENERATED VIA SPACETRACK.ORG API",
    "ORIGINATOR": "18 SPCS",
    "NORAD_CAT_ID": "25260",
    "OBJECT_NAME": "SPOT 4",
    "OBJECT_TYPE": "PAYLOAD",
    "CLASSIFICATION_TYPE": "U",
    "INTLDES": "98017A",
    "EPOCH": "2023-08-20 05:57:15",
    "EPOCH_MICROSECONDS": "920352",
    "MEAN_MOTION": "14.54273214",
    "ECCENTRICITY": "0.0013294",
    "INCLINATION": "98.2643",
    "RA_OF_ASC_NODE": "324.4336",
    "ARG_OF_PERICENTER": "166.0636",
    "MEAN_ANOMALY": "194.093",
    "EPHEMERIS_TYPE": "0",
    "ELEMENT_SET_NO": "999",
    "REV_AT_EPOCH": "32946",
    "BSTAR": "0.00014139",
    "MEAN_MOTION_DOT": "0.00000555",
    "MEAN_MOTION_DDOT": "0",
    "FILE": "3985423",
    "TLE_LINE0": "0 SPOT 4",
    "TLE_LINE1": "1 25260U 98017A   23232.24810093  .00000555  00000-0  14139-3 0  9995",
    "TLE_LINE2": "2 25260  98.2643 324.4336 0013294 166.0636 194.0930 14.54273214329464",
    "OBJECT_ID": "1998-017A",
    "OBJECT_NUMBER": "25260",
    "SEMIMAJOR_AXIS": "7089.863",
    "PERIOD": "99.019",
    "APOGEE": "721.153",
    "PERIGEE": "702.303",
    "DECAYED": "0"
  },
  {
    "COMMENT": "GENERATED VIA SPACETRACK.ORG API",
    "ORIGINATOR": "18 SPCS",
    "NORAD_CAT_ID": "25260",
    "OBJECT_NAME": "SPOT 4",
    "OBJECT_TYPE": "PAYLOAD",
    "CLASSIFICATION_TYPE": "U",
    "INTLDES": "98017A",
    "EPOCH": "2023-08-20 17:30:48",
    "EPOCH_MICROSECONDS": "277152",
    "MEAN_MOTION": "14.54273661",
    "ECCENTRICITY": "0.001333",
    "INCLINATION": "98.2642",
    "RA_OF_ASC_NODE": "324.9092",
    "ARG_OF_PERICENTER": "164.6372",
    "MEAN_ANOMALY": "195.5232",
    "EPHEMERIS_TYPE": "0",
    "ELEMENT_SET_NO": "999",
    "REV_AT_EPOCH": "32953",
    "BSTAR": "0.00013606",
    "MEAN_MOTION_DOT": "0.00000532",
    "MEAN_MOTION_DDOT": "0",
    "FILE": "3985686",
    "TLE_LINE0": "0 SPOT 4",
    "TLE_LINE1": "1 25260U 98017A   23232.72972543  .00000532  00000-0  13606-3 0  9990",
    "TLE_LINE2": "2 25260  98.2642 324.9092 0013330 164.6372 195.5232 14.54273661329534",
    "OBJECT_ID": "1998-017A",
    "OBJECT_NUMBER": "25260",
    "SEMIMAJOR_AXIS": "7089.861",
    "PERIOD": "99.019",
    "APOGEE": "721.177",
    "PERIGEE": "702.276",
    "DECAYED": "0"
  },
  {
    "COMMENT": "GENERATED VIA SPACETRACK.ORG API",
    "ORIGINATOR": "18 SPCS",
    "NORAD_CAT_ID": "25260",
    "OBJECT_NAME": "SPOT 4",
    "OBJECT_TYPE": "PAYLOAD",
    "CLASSIFICATION_TYPE": "U",
    "INTLDES": "98017A",
    "EPOCH": "2023-08-21 03:25:16",
    "EPOCH_MICROSECONDS": "8096",
    "MEAN_MOTION": "14.54274093",
    "ECCENTRICITY": "0.001335",
    "INCLINATION": "98.2641",
    "RA_OF_ASC_NODE": "325.3168",
    "ARG_OF_PERICENTER": "163.3998",
    "MEAN_ANOMALY": "196.7639",
    "EPHEMERIS_TYPE": "0",
    "ELEMENT_SET_NO": "999",
    "REV_AT_EPOCH": "32959",
    "BSTAR": "0.00013605",
    "MEAN_MOTION_DOT": "0.00000532",
    "MEAN_MOTION_DDOT": "0",
    "FILE": "3985986",
    "TLE_LINE0": "0 SPOT 4",
    "TLE_LINE1": "1 25260U 98017A   23233.14254639  .00000532  00000-0  13605-3 0  9995",
    "TLE_LINE2": "2 25260  98.2641 325.3168 0013350 163.3998 196.7639 14.54274093329594",
    "OBJECT_ID": "1998-017A",
    "OBJECT_NUMBER": "25260",
    "SEMIMAJOR_AXIS": "7089.860",
    "PERIOD": "99.018",
    "APOGEE": "721.190",
    "PERIGEE": "702.260",
    "DECAYED": "0"
  }
]